IRIDIUM 119             
1 42959U 17061E   25041.88655774  .00000085  00000+0  23185-4 0  9991
2 42959  86.3945 230.5058 0002177  98.1171 262.0272 14.34218074384395
IRIDIUM 107             
1 42960U 17061F   25041.90559734  .00000225  00000+0  73273-4 0  9994
2 42960  86.3944 230.5161 0002516  96.2634 263.8848 14.34219221384406
IRIDIUM 132             
1 42961U 17061G   25042.53984356 -.00000008  00000+0 -98489-5 0  9995
2 42961  86.3948 230.2340 0002089  90.6578 269.4857 14.34217165384493
IRIDIUM 136             
1 42962U 17061H   25041.94364219 -.00000033  00000+0 -18937-4 0  9997
2 42962  86.3948 230.4875 0002271 100.2249 259.9202 14.34217856384423
IRIDIUM 139             
1 42963U 17061J   25041.88022354  .00000217  00000+0  70475-4 0  9999
2 42963  86.3946 230.5680 0002381  93.2732 266.8737 14.34218686384429
IRIDIUM 125             
1 42964U 17061K   25041.93730008 -.00000019  00000+0 -13684-4 0  9999
2 42964  86.3951 230.5963 0002162 108.0845 252.0586 14.34218960384443
IRIDIUM 135             
1 43070U 17083A   25042.39980248  .00000139  00000+0  42599-4 0  9994
2 43070  86.4034 167.1560 0001840  92.7758 267.3648 14.34216773373803
IRIDIUM 138             
1 43071U 17083B   25042.42517158  .00000374  00000+0  12655-3 0  9995
2 43071  86.4020 166.8328 0001831 116.1555 243.9829 14.34217485373793
